CHINASAT 9A (ZX 9A)     
1 42763U 17035A   17345.89004286 -.00000319  00000-0  00000-0 0  9999
2 42763   0.0693 111.2014 0000799 137.4083 254.0138  1.00272896  2474
